[{"OBJECT_NAME":"STARLINK-30186","OBJECT_ID":"2023-107P","EPOCH":"2026-03-09T03:34:26.783904","MEAN_MOTION":15.11062379,"ECCENTRICITY":0.00020628,"INCLINATION":43.0042,"RA_OF_ASC_NODE":340.919,"ARG_OF_PERICENTER":292.4268,"MEAN_ANOMALY":67.6359,"EPHEMERIS_TYPE":0,"CLASSIFICATION_TYPE":"U","NORAD_CAT_ID":57470,"ELEMENT_SET_NO":999,"REV_AT_EPOCH":14504,"BSTAR":0.0016488341,"MEAN_MOTION_DOT":0.00027958,"MEAN_MOTION_DDOT":0},{"OBJECT_NAME":"VENUS","OBJECT_ID":"2017-044B","EPOCH":"2026-03-09T23:09:30.995712","MEAN_MOTION":15.13501273,"ECCENTRICITY":0.0003369,"INCLINATION":97.2854,"RA_OF_ASC_NODE":109.9366,"ARG_OF_PERICENTER":18.8951,"MEAN_ANOMALY":341.2406,"EPHEMERIS_TYPE":0,"CLASSIFICATION_TYPE":"U","NORAD_CAT_ID":42901,"ELEMENT_SET_NO":999,"REV_AT_EPOCH":46594,"BSTAR":0.00021725971,"MEAN_MOTION_DOT":3.827e-5,"MEAN_MOTION_DDOT":0}]
